;FLAVOR:Marlin
;TIME:3924
;Filament used: 3.85616m
;Layer height: 1
;MINX:729.822
;MINY:649.311
;MINZ:1
;MAXX:747.822
;MAXY:811.311
;MAXZ:5
;TARGET_MACHINE.NAME:Unknown
;Generated with Cura_SteamEngine 5.6.0
M140 S60
M105
M190 S60
M104 S200
M105
M109 S200
M82 ;absolute extrusion mode
G28 ;Home
G1 Z15.0 F6000 ;Move the platform down 15mm
;Prime the extruder
G92 E0
G1 F200 E3
G92 E0
G92 E0
G92 E0
G1 F1500 E-6.5
;LAYER_COUNT:5
;LAYER:0
M117 INDICATOR-Layer0
M107
;MESH:probeta2.STL
G0 F3600 X747.822 Y811.311 Z1
;TYPE:WALL-OUTER
G1 F1500 E0
G1 F90 X747.822 Y649.311 E76.18275
G1 X729.822 Y649.311 E84.6475
G1 X729.822 Y811.311 E160.83026
G1 X747.822 Y811.311 E169.29501
G0 F3600 X747.822 Y810.311
G0 X744.752 Y808.241
G0 X745.822 Y809.311
;TYPE:FILL
G1 F90 X745.822 Y651.311 E243.59671
G1 X731.822 Y651.311 E250.1804
G1 X731.822 Y809.311 E324.4821
G1 X745.822 Y809.311 E331.06579
G0 F3600 X744.752 Y808.241
G0 X743.822 Y807.311
G1 F90 X743.822 Y653.311 E403.48644
G1 X733.822 Y653.311 E408.18908
G1 X733.822 Y807.311 E480.60972
G1 X743.822 Y807.311 E485.31236
G0 F3600 X741.822 Y805.311
G1 F90 X741.822 Y655.311 E555.85195
G1 X735.822 Y655.311 E558.67353
G1 X735.822 Y805.311 E629.21312
G1 X741.822 Y805.311 E632.0347
G0 F3600 X739.822 Y803.311
G1 F90 X739.822 Y657.311 E700.69323
G1 X737.822 Y657.311 E701.63376
G1 X737.822 Y803.311 E770.29229
G1 X739.822 Y803.311 E771.23282
;MESH:NONMESH
G0 F600 X739.822 Y803.311 Z2
G0 F3600 X746.752 Y810.241
G0 X747.822 Y811.311
;TIME_ELAPSED:1113.741612
;LAYER:1
M117 INDICATOR-Layer1
M106 S255
;TYPE:WALL-OUTER
;MESH:probeta2.STL
G1 F90 X747.822 Y649.311 E847.41557
G1 X729.822 Y649.311 E855.88032
G1 X729.822 Y811.311 E932.06308
G1 X747.822 Y811.311 E940.52783
G0 F5400 X747.822 Y810.311
G0 X744.752 Y808.241
G0 X745.822 Y809.311
;TYPE:FILL
G1 F135 X745.822 Y651.311 E1014.82952
G1 X731.822 Y651.311 E1021.41322
G1 X731.822 Y809.311 E1095.71492
G1 X745.822 Y809.311 E1102.29861
G0 F5400 X744.752 Y808.241
G0 X743.822 Y807.311
G1 F135 X743.822 Y653.311 E1174.71925
G1 X733.822 Y653.311 E1179.42189
G1 X733.822 Y807.311 E1251.84254
G1 X743.822 Y807.311 E1256.54518
G0 F5400 X741.822 Y805.311
G1 F135 X741.822 Y655.311 E1327.08476
G1 X735.822 Y655.311 E1329.90635
G1 X735.822 Y805.311 E1400.44593
G1 X741.822 Y805.311 E1403.26752
G0 F5400 X739.822 Y803.311
G1 F135 X739.822 Y657.311 E1471.92605
G1 X737.822 Y657.311 E1472.86658
G1 X737.822 Y803.311 E1541.52511
G1 X739.822 Y803.311 E1542.46563
;MESH:NONMESH
G0 F600 X739.822 Y803.311 Z3
G0 F5400 X746.752 Y810.241
G0 X747.822 Y811.311
;TIME_ELAPSED:1923.224790
;LAYER:2
M117 INDICATOR-Layer2
;TYPE:WALL-OUTER
;MESH:probeta2.STL
G1 F90 X747.822 Y649.311 E1618.64839
G92 E0
G1 X729.822 Y649.311 E8.46475
G1 X729.822 Y811.311 E84.6475
G1 X747.822 Y811.311 E93.11225
G0 F7200 X747.822 Y810.311
G0 X744.752 Y808.241
G0 X745.822 Y809.311
;TYPE:FILL
G1 F180 X745.822 Y651.311 E167.41395
G1 X731.822 Y651.311 E173.99765
G1 X731.822 Y809.311 E248.29935
G1 X745.822 Y809.311 E254.88304
G0 F7200 X744.752 Y808.241
G0 X743.822 Y807.311
G1 F180 X743.822 Y653.311 E327.30368
G1 X733.822 Y653.311 E332.00632
G1 X733.822 Y807.311 E404.42697
G1 X743.822 Y807.311 E409.1296
G0 F7200 X741.822 Y805.311
G1 F180 X741.822 Y655.311 E479.66919
G1 X735.822 Y655.311 E482.49077
G1 X735.822 Y805.311 E553.03036
G1 X741.822 Y805.311 E555.85195
G0 F7200 X739.822 Y803.311
G1 F180 X739.822 Y657.311 E624.51048
G1 X737.822 Y657.311 E625.451
G1 X737.822 Y803.311 E694.10954
G1 X739.822 Y803.311 E695.05006
;MESH:NONMESH
G0 F600 X739.822 Y803.311 Z4
G0 F7200 X746.752 Y810.241
G0 X747.822 Y811.311
;TIME_ELAPSED:2590.449743
;LAYER:3
M117 INDICATOR-Layer3
;TYPE:WALL-OUTER
;MESH:probeta2.STL
G1 F90 X747.822 Y649.311 E771.23282
G1 X729.822 Y649.311 E779.69757
G1 X729.822 Y811.311 E855.88032
G1 X747.822 Y811.311 E864.34507
G0 F7200 X747.822 Y810.311
G0 X744.752 Y808.241
G0 X745.822 Y809.311
;TYPE:FILL
G1 F180 X745.822 Y651.311 E938.64677
G1 X731.822 Y651.311 E945.23047
G1 X731.822 Y809.311 E1019.53216
G1 X745.822 Y809.311 E1026.11586
G0 F7200 X744.752 Y808.241
G0 X743.822 Y807.311
G1 F180 X743.822 Y653.311 E1098.5365
G1 X733.822 Y653.311 E1103.23914
G1 X733.822 Y807.311 E1175.65978
G1 X743.822 Y807.311 E1180.36242
G0 F7200 X741.822 Y805.311
G1 F180 X741.822 Y655.311 E1250.90201
G1 X735.822 Y655.311 E1253.72359
G1 X735.822 Y805.311 E1324.26318
G1 X741.822 Y805.311 E1327.08476
G0 F7200 X739.822 Y803.311
G1 F180 X739.822 Y657.311 E1395.74329
G1 X737.822 Y657.311 E1396.68382
G1 X737.822 Y803.311 E1465.34235
G1 X739.822 Y803.311 E1466.28288
;MESH:NONMESH
G0 F600 X739.822 Y803.311 Z5
G0 F7200 X746.752 Y810.241
G0 X747.822 Y811.311
;TIME_ELAPSED:3257.674208
;LAYER:4
M117 INDICATOR-Layer4
;TYPE:WALL-OUTER
;MESH:probeta2.STL
G1 F90 X747.822 Y649.311 E1542.46563
G1 X729.822 Y649.311 E1550.93039
G1 X729.822 Y811.311 E1627.11314
G92 E0
G1 X747.822 Y811.311 E8.46475
G0 F7200 X747.822 Y810.311
G0 X744.752 Y808.241
G0 X745.822 Y809.311
;TYPE:FILL
G1 F180 X745.822 Y651.311 E82.76645
G1 X731.822 Y651.311 E89.35014
G1 X731.822 Y809.311 E163.65184
G1 X745.822 Y809.311 E170.23554
G0 F7200 X744.752 Y808.241
G0 X743.822 Y807.311
G1 F180 X743.822 Y653.311 E242.65618
G1 X733.822 Y653.311 E247.35882
G1 X733.822 Y807.311 E319.77946
G1 X743.822 Y807.311 E324.4821
G0 F7200 X741.822 Y805.311
G1 F180 X741.822 Y655.311 E395.02169
G1 X735.822 Y655.311 E397.84327
G1 X735.822 Y805.311 E468.38286
G1 X741.822 Y805.311 E471.20444
G0 F7200 X739.822 Y803.311
G1 F180 X739.822 Y657.311 E539.86297
G1 X737.822 Y657.311 E540.8035
G1 X737.822 Y803.311 E609.46203
G1 X739.822 Y803.311 E610.40256
;TIME_ELAPSED:3924.616306
G1 F1500 E603.90256
M140 S0
M107
M104 S0
M140 S0
;Retract the filament
G92 E1
G1 E-1 F300
G28 X0 Y0
M84
M82 ;absolute extrusion mode
M104 S0
;End of Gcode
;SETTING_3 {"global_quality": "[general]\\nversion = 4\\nname = Coarse #2\\ndefi
;SETTING_3 nition = custom\\n\\n[metadata]\\ntype = quality_changes\\nquality_ty
;SETTING_3 pe = coarse\\nsetting_version = 22\\n\\n[values]\\nadhesion_type = no
;SETTING_3 ne\\nlayer_height = 1\\nlayer_height_0 = 1\\n\\n", "extruder_quality"
;SETTING_3 : ["[general]\\nversion = 4\\nname = Coarse #2\\ndefinition = custom\
;SETTING_3 \n\\n[metadata]\\ntype = quality_changes\\nquality_type = coarse\\nse
;SETTING_3 tting_version = 22\\nposition = 0\\n\\n[values]\\nbottom_layers = 0\\
;SETTING_3 ninfill_before_walls = False\\ninfill_line_distance = 2\\ninfill_patt
;SETTING_3 ern = concentric\\ninfill_sparse_density = 100\\ninset_direction = ou
;SETTING_3 tside_in\\nmaterial_flow = 150.0\\nspeed_print = 3\\nwall_thickness =
;SETTING_3  1\\nzig_zaggify_infill = True\\n\\n"]}
; BEGIN DISPLAYLAYERPROGRESS SETTINGS
; DisplayLayerProgress_layerIndicatorProcessed = true
; END   DISPLAYLAYERPROGRESS SETTINGS
